$$SOE
2460154.500000000, A.D. 2023-Jul-29 00:00:00.0000, -1.966605128563634E+07, 2.531526462339983E+08, -3.118375687188620E+07,
2460161.500000000, A.D. 2023-Aug-05 00:00:00.0000, -3.393616960033035E+07, 2.544952402943826E+08, -2.543021007284935E+07,
2460168.500000000, A.D. 2023-Aug-12 00:00:00.0000, -4.811055623665306E+07, 2.551187264481818E+08, -1.960473114021450E+07,
2460175.500000000, A.D. 2023-Aug-19 00:00:00.0000, -6.215281415895199E+07, 2.550406596094726E+08, -1.372526351149721E+07,
2460182.500000000, A.D. 2023-Aug-26 00:00:00.0000, -7.602917793887974E+07, 2.542811118942133E+08, -7.809042673088580E+06,
2460189.500000000, A.D. 2023-Sep-02 00:00:00.0000, -8.970860408870175E+07, 2.528622660362348E+08, -1.872495135788903E+06,
2460196.500000000, A.D. 2023-Sep-09 00:00:00.0000, -1.031628065558364E+08, 2.508080213495414E+08, 4.068837698357210E+06,
2460203.500000000, A.D. 2023-Sep-16 00:00:00.0000, -1.163662441581172E+08, 2.481436200944198E+08, 1.000035242902476E+07,
2460210.500000000, A.D. 2023-Sep-23 00:00:00.0000, -1.292960669644120E+08, 2.448953004021978E+08, 1.590841548275118E+07,
2460217.500000000, A.D. 2023-Sep-30 00:00:00.0000, -1.419320294279357E+08, 2.410899809078675E+08, 2.178037650129876E+07,
2460224.500000000, A.D. 2023-Oct-07 00:00:00.0000, -1.542563798004657E+08, 2.367549788185619E+08, 2.760456610964918E+07,
2460231.500000000, A.D. 2023-Oct-14 00:00:00.0000, -1.662537314069756E+08, 2.319177589263663E+08, 3.337028034249124E+07,
2460238.500000000, A.D. 2023-Oct-21 00:00:00.0000, -1.779109184877934E+08, 2.266057148015142E+08, 3.906775409865338E+07,
2460245.500000000, A.D. 2023-Oct-28 00:00:00.0000, -1.892168432164880E+08, 2.208459831936086E+08, 4.468812628964400E+07,
2460252.500000000, A.D. 2023-Nov-04 00:00:00.0000, -2.001623195096811E+08, 2.146652889995451E+08, 5.022339885338619E+07,
2460259.500000000, A.D. 2023-Nov-11 00:00:00.0000, -2.107399170322891E+08, 2.080898178800722E+08, 5.566639142861110E+07,
2460266.500000000, A.D. 2023-Nov-18 00:00:00.0000, -2.209438080366644E+08, 2.011451138922279E+08, 6.101069326061685E+07,
2460273.500000000, A.D. 2023-Nov-25 00:00:00.0000, -2.307696191623718E+08, 1.938559994914313E+08, 6.625061367154492E+07,
2460280.500000000, A.D. 2023-Dec-02 00:00:00.0000, -2.402142897860600E+08, 1.862465152314773E+08, 7.138113218540883E+07,
2460287.500000000, A.D. 2023-Dec-09 00:00:00.0000, -2.492759379642447E+08, 1.783398765285481E+08, 7.639784916484928E+07,
2460294.500000000, A.D. 2023-Dec-16 00:00:00.0000, -2.579537343948364E+08, 1.701584450672455E+08, 8.129693760451201E+07,
2460301.500000000, A.D. 2023-Dec-23 00:00:00.0000, -2.662477844403950E+08, 1.617237132838894E+08, 8.607509660912660E+07,
2460308.500000000, A.D. 2023-Dec-30 00:00:00.0000, -2.741590196918630E+08, 1.530563009371297E+08, 9.072950713424304E+07,
2460315.500000000, A.D. 2024-Jan-06 00:00:00.0000, -2.816891007802149E+08, 1.441759595933887E+08, 9.525779021767604E+07,
2460322.500000000, A.D. 2024-Jan-13 00:00:00.0000, -2.888403280259684E+08, 1.351015816257937E+08, 9.965796742174497E+07,
2460329.500000000, A.D. 2024-Jan-20 00:00:00.0000, -2.956155583392790E+08, 1.258512154054305E+08, 1.039284236967985E+08,
2460336.500000000, A.D. 2024-Jan-27 00:00:00.0000, -3.020181299698182E+08, 1.164420861141749E+08, 1.080678729147754E+08,
2460343.500000000, A.D. 2024-Feb-03 00:00:00.0000, -3.080517950605183E+08, 1.068906201878889E+08, 1.120753259994894E+08,
2460350.500000000, A.D. 2024-Feb-10 00:00:00.0000, -3.137206592222347E+08, 9.721247221297954E+07, 1.159500615317160E+08,
2460357.500000000, A.D. 2024-Feb-17 00:00:00.0000, -3.190291274760860E+08, 8.742255353623429E+07, 1.196915987175869E+08,
2460364.500000000, A.D. 2024-Feb-24 00:00:00.0000, -3.239818560187988E+08, 7.753506197862041E+07, 1.232996726014221E+08,
2460371.500000000, A.D. 2024-Mar-02 00:00:00.0000, -3.285837092875081E+08, 6.756351210518906E+07, 1.267742113898067E+08,
2460378.500000000, A.D. 2024-Mar-09 00:00:00.0000, -3.328397217118915E+08, 5.752076556662871E+07, 1.301153157350940E+08,
2460385.500000000, A.D. 2024-Mar-16 00:00:00.0000, -3.367550633103591E+08, 4.741906136826938E+07, 1.333232398223164E+08,
2460392.500000000, A.D. 2024-Mar-23 00:00:00.0000, -3.403350088141743E+08, 3.727004690213643E+07, 1.363983742252271E+08,
2460399.500000000, A.D. 2024-Mar-30 00:00:00.0000, -3.435849121721698E+08, 2.708480949940377E+07, 1.393412306053540E+08,
2460406.500000000, A.D. 2024-Apr-06 00:00:00.0000, -3.465101858241227E+08, 1.687390497082185E+07, 1.421524278336793E+08,
2460413.500000000, A.D. 2024-Apr-13 00:00:00.0000, -3.491162808620427E+08, 6.647383851998322E+06, 1.448326791610824E+08,
2460420.500000000, A.D. 2024-Apr-20 00:00:00.0000, -3.514086687252861E+08, -3.585182056642897E+06, 1.473827806296526E+08,
2460427.500000000, A.D. 2024-Apr-27 00:00:00.0000, -3.533928256702801E+08, -1.381467347869981E+07, 1.498036007118965E+08,
2460434.500000000, A.D. 2024-May-04 00:00:00.0000, -3.550742196794572E+08, -2.403239852007186E+07, 1.520960710155732E+08,
2460441.500000000, A.D. 2024-May-11 00:00:00.0000, -3.564582993460712E+08, -3.423006871491227E+07, 1.542611779335945E+08,
2460448.500000000, A.D. 2024-May-18 00:00:00.0000, -3.575504844485721E+08, -4.439977623939568E+07, 1.562999551484062E+08,
2460455.500000000, A.D. 2024-May-25 00:00:00.0000, -3.583561580057574E+08, -5.453397229108247E+07, 1.582134769095294E+08,
2460462.500000000, A.D. 2024-Jun-01 00:00:00.0000, -3.588806595878344E+08, -6.462544667298539E+07, 1.600028520021769E+08,
2460469.500000000, A.D. 2024-Jun-08 00:00:00.0000, -3.591292794892947E+08, -7.466730857981527E+07, 1.616692183167844E+08,
2460476.500000000, A.D. 2024-Jun-15 00:00:00.0000, -3.591072532317682E+08, -8.465296801039052E+07, 1.632137379672852E+08,
2460483.500000000, A.D. 2024-Jun-22 00:00:00.0000, -3.588197572835304E+08, -9.457611659653921E+07, 1.646375930913548E+08,
2460490.500000000, A.D. 2024-Jun-29 00:00:00.0000, -3.582719080122955E+08, -1.044307096331442E+08, 1.659419823290023E+08,
2460497.500000000, A.D. 2024-Jul-06 00:00:00.0000, -3.574687611346167E+08, -1.142109517422304E+08, 1.671281174916455E+08,
2460504.500000000, A.D. 2024-Jul-13 00:00:00.0000, -3.564153096303055E+08, -1.239112833055037E+08, 1.681972204336790E+08,
2460511.500000000, A.D. 2024-Jul-20 00:00:00.0000, -3.551164820320613E+08, -1.335263664750825E+08, 1.691505203641793E+08,
2460518.500000000, A.D. 2024-Jul-27 00:00:00.0000, -3.535771416797415E+08, -1.430510716827378E+08, 1.699892515460946E+08,
2460525.500000000, A.D. 2024-Aug-03 00:00:00.0000, -3.518020866090924E+08, -1.524804649842095E+08, 1.707146512976804E+08,
2460532.500000000, A.D. 2024-Aug-10 00:00:00.0000, -3.497960498591006E+08, -1.618097962039604E+08, 1.713279582541746E+08,
2460539.500000000, A.D. 2024-Aug-17 00:00:00.0000, -3.475637001058686E+08, -1.710344878194177E+08, 1.718304108623611E+08,
2460546.500000000, A.D. 2024-Aug-24 00:00:00.0000, -3.451096425548171E+08, -1.801501245686570E+08, 1.722232460800931E+08,
2460553.500000000, A.D. 2024-Aug-31 00:00:00.0000, -3.424384199391246E+08, -1.891524438065724E+08, 1.725076982429560E+08,
2460560.500000000, A.D. 2024-Sep-07 00:00:00.0000, -3.395545132261384E+08, -1.980373264493189E+08, 1.726849980545822E+08,
2460567.500000000, A.D. 2024-Sep-14 00:00:00.0000, -3.364623419175815E+08, -2.068007874800844E+08, 1.727563717564798E+08,
2460574.500000000, A.D. 2024-Sep-21 00:00:00.0000, -3.331662659474958E+08, -2.154389655749891E+08, 1.727230406823720E+08,
2460581.500000000, A.D. 2024-Sep-28 00:00:00.0000, -3.296705896452436E+08, -2.239481150502819E+08, 1.725862209664221E+08,
2460588.500000000, A.D. 2024-Oct-05 00:00:00.0000, -3.259795640783564E+08, -2.323246001029692E+08, 1.723471230598146E+08,
2460595.500000000, A.D. 2024-Oct-12 00:00:00.0000, -3.220973881221584E+08, -2.405648883373969E+08, 1.720069513229957E+08,
2460602.500000000, A.D. 2024-Oct-19 00:00:00.0000, -3.180282099935349E+08, -2.486655438220432E+08, 1.715669038217654E+08,
2460609.500000000, A.D. 2024-Oct-26 00:00:00.0000, -3.137761292687130E+08, -2.566232204540462E+08, 1.710281722550719E+08,
2460616.500000000, A.D. 2024-Nov-02 00:00:00.0000, -3.093451991171965E+08, -2.644346557583412E+08, 1.703919419708230E+08,
2460623.500000000, A.D. 2024-Nov-09 00:00:00.0000, -3.047394286467584E+08, -2.720966650804858E+08, 1.696593920560086E+08,
2460630.500000000, A.D. 2024-Nov-16 00:00:00.0000, -2.999627853265598E+08, -2.796061361535735E+08, 1.688316954930338E+08,
2460637.500000000, A.D. 2024-Nov-23 00:00:00.0000, -2.950191974355511E+08, -2.869600240708536E+08, 1.679100193686832E+08,
2460644.500000000, A.D. 2024-Nov-30 00:00:00.0000, -2.899125563230099E+08, -2.941553466896327E+08, 1.668955251085404E+08,
2460651.500000000, A.D. 2024-Dec-07 00:00:00.0000, -2.846467180579508E+08, -3.011891800298316E+08, 1.657893687287632E+08,
2460658.500000000, A.D. 2024-Dec-14 00:00:00.0000, -2.792255051529366E+08, -3.080586524280457E+08, 1.645927012647449E+08,
2460665.500000000, A.D. 2024-Dec-21 00:00:00.0000, -2.736527106780952E+08, -3.147609386739582E+08, 1.633066694845837E+08,
2460672.500000000, A.D. 2024-Dec-28 00:00:00.0000, -2.679321027912690E+08, -3.212932570846250E+08, 1.619324164618556E+08,
2460679.500000000, A.D. 2025-Jan-04 00:00:00.0000, -2.620674270873079E+08, -3.276528671295461E+08, 1.604710819627700E+08,
2460686.500000000, A.D. 2025-Jan-11 00:00:00.0000, -2.560624085884996E+08, -3.338370659352924E+08, 1.589238029492610E+08,
2460693.500000000, A.D. 2025-Jan-18 00:00:00.0000, -2.499207542935156E+08, -3.398431845774964E+08, 1.572917142054802E+08,
2460700.500000000, A.D. 2025-Jan-25 00:00:00.0000, -2.436461560418902E+08, -3.456685846250962E+08, 1.555759490253139E+08,
2460707.500000000, A.D. 2025-Feb-01 00:00:00.0000, -2.372422935055967E+08, -3.513106549587419E+08, 1.537776399405605E+08,
2460714.500000000, A.D. 2025-Feb-08 00:00:00.0000, -2.307128372512720E+08, -3.567668088364747E+08, 1.518979194862335E+08,
2460721.500000000, A.D. 2025-Feb-15 00:00:00.0000, -2.240614518470317E+08, -3.620344812199861E+08, 1.499379209992912E+08,
$$EOE